[{"OBJECT_NAME":"MERIDIAN-M 21L","OBJECT_ID":"2026-071A","EPOCH":"2026-04-14T09:33:05.456448","MEAN_MOTION":1.98596107,"ECCENTRICITY":0.72346467,"INCLINATION":62.779,"RA_OF_ASC_NODE":237.3403,"ARG_OF_PERICENTER":284.9939,"MEAN_ANOMALY":10.816,"EPHEMERIS_TYPE":0,"CLASSIFICATION_TYPE":"U","NORAD_CAT_ID":68571,"ELEMENT_SET_NO":999,"REV_AT_EPOCH":23,"BSTAR":0.0080351969,"MEAN_MOTION_DOT":4.89e-6,"MEAN_MOTION_DDOT":0},{"OBJECT_NAME":"FREGAT R/B","OBJECT_ID":"2026-071B","EPOCH":"2026-04-03T07:42:42.175872","MEAN_MOTION":2.01041412,"ECCENTRICITY":0.73138199,"INCLINATION":63.0589,"RA_OF_ASC_NODE":237.9448,"ARG_OF_PERICENTER":284.9724,"MEAN_ANOMALY":10.3188,"EPHEMERIS_TYPE":0,"CLASSIFICATION_TYPE":"U","NORAD_CAT_ID":68572,"ELEMENT_SET_NO":999,"REV_AT_EPOCH":1,"BSTAR":0.00035051942,"MEAN_MOTION_DOT":-1.541e-5,"MEAN_MOTION_DDOT":0},{"OBJECT_NAME":"KUIPER-00131","OBJECT_ID":"2026-072A","EPOCH":"2026-04-17T22:57:14.586048","MEAN_MOTION":15.36699012,"ECCENTRICITY":0.000754,"INCLINATION":51.8683,"RA_OF_ASC_NODE":108.2416,"ARG_OF_PERICENTER":147.8928,"MEAN_ANOMALY":212.2519,"EPHEMERIS_TYPE":0,"CLASSIFICATION_TYPE":"U","NORAD_CAT_ID":68573,"ELEMENT_SET_NO":999,"REV_AT_EPOCH":211,"BSTAR":-0.0057646108,"MEAN_MOTION_DOT":-0.00204929,"MEAN_MOTION_DDOT":0},{"OBJECT_NAME":"KUIPER-00189","OBJECT_ID":"2026-072B","EPOCH":"2026-04-20T14:00:03.000384","MEAN_MOTION":15.20265647,"ECCENTRICITY":8.011e-5,"INCLINATION":51.8834,"RA_OF_ASC_NODE":95.9976,"ARG_OF_PERICENTER":76.2275,"MEAN_ANOMALY":180.2268,"EPHEMERIS_TYPE":0,"CLASSIFICATION_TYPE":"U","NORAD_CAT_ID":68574,"ELEMENT_SET_NO":999,"REV_AT_EPOCH":301,"BSTAR":-0.0017193046,"MEAN_MOTION_DOT":-0.00037944,"MEAN_MOTION_DDOT":0},{"OBJECT_NAME":"KUIPER-00192","OBJECT_ID":"2026-072C","EPOCH":"2026-04-17T21:17:27.368448","MEAN_MOTION":15.37647406,"ECCENTRICITY":0.00050278,"INCLINATION":51.8736,"RA_OF_ASC_NODE":108.5275,"ARG_OF_PERICENTER":140.187,"MEAN_ANOMALY":219.9486,"EPHEMERIS_TYPE":0,"CLASSIFICATION_TYPE":"U","NORAD_CAT_ID":68575,"ELEMENT_SET_NO":999,"REV_AT_EPOCH":210,"BSTAR":0.00031737229,"MEAN_MOTION_DOT":0.00011542,"MEAN_MOTION_DDOT":0},{"OBJECT_NAME":"KUIPER-00193","OBJECT_ID":"2026-072D","EPOCH":"2026-04-17T21:15:30.120192","MEAN_MOTION":15.37687211,"ECCENTRICITY":0.00033141,"INCLINATION":51.8739,"RA_OF_ASC_NODE":108.5181,"ARG_OF_PERICENTER":126.7967,"MEAN_ANOMALY":233.3324,"EPHEMERIS_TYPE":0,"CLASSIFICATION_TYPE":"U","NORAD_CAT_ID":68576,"ELEMENT_SET_NO":999,"REV_AT_EPOCH":210,"BSTAR":0.00033006294,"MEAN_MOTION_DOT":0.00012034,"MEAN_MOTION_DDOT":0},{"OBJECT_NAME":"KUIPER-00194","OBJECT_ID":"2026-072E","EPOCH":"2026-04-18T14:19:53.467968","MEAN_MOTION":15.37972278,"ECCENTRICITY":0.00026971,"INCLINATION":51.8757,"RA_OF_ASC_NODE":105.0333,"ARG_OF_PERICENTER":123.5402,"MEAN_ANOMALY":236.5843,"EPHEMERIS_TYPE":0,"CLASSIFICATION_TYPE":"U","NORAD_CAT_ID":68577,"ELEMENT_SET_NO":999,"REV_AT_EPOCH":221,"BSTAR":-0.00058769333,"MEAN_MOTION_DOT":-0.00022625,"MEAN_MOTION_DDOT":0},{"OBJECT_NAME":"KUIPER-00229","OBJECT_ID":"2026-072F","EPOCH":"2026-04-17T21:25:43.231872","MEAN_MOTION":15.36942324,"ECCENTRICITY":0.00075307,"INCLINATION":51.8694,"RA_OF_ASC_NODE":108.5657,"ARG_OF_PERICENTER":146.1324,"MEAN_ANOMALY":214.0145,"EPHEMERIS_TYPE":0,"CLASSIFICATION_TYPE":"U","NORAD_CAT_ID":68578,"ELEMENT_SET_NO":999,"REV_AT_EPOCH":210,"BSTAR":0.00029816675,"MEAN_MOTION_DOT":0.00010572,"MEAN_MOTION_DDOT":0},{"OBJECT_NAME":"KUIPER-00230","OBJECT_ID":"2026-072G","EPOCH":"2026-04-17T21:05:42.296928","MEAN_MOTION":15.38406847,"ECCENTRICITY":0.00016165,"INCLINATION":51.8754,"RA_OF_ASC_NODE":108.4682,"ARG_OF_PERICENTER":101.2995,"MEAN_ANOMALY":258.8174,"EPHEMERIS_TYPE":0,"CLASSIFICATION_TYPE":"U","NORAD_CAT_ID":68579,"ELEMENT_SET_NO":999,"REV_AT_EPOCH":210,"BSTAR":0.00032760255,"MEAN_MOTION_DOT":0.0001223,"MEAN_MOTION_DDOT":0},{"OBJECT_NAME":"KUIPER-00231","OBJECT_ID":"2026-072H","EPOCH":"2026-04-17T21:11:58.710624","MEAN_MOTION":15.38006246,"ECCENTRICITY":0.00027197,"INCLINATION":51.8734,"RA_OF_ASC_NODE":108.5035,"ARG_OF_PERICENTER":125.3757,"MEAN_ANOMALY":234.7485,"EPHEMERIS_TYPE":0,"CLASSIFICATION_TYPE":"U","NORAD_CAT_ID":68580,"ELEMENT_SET_NO":999,"REV_AT_EPOCH":210,"BSTAR":0.00033122723,"MEAN_MOTION_DOT":0.00012206,"MEAN_MOTION_DDOT":0},{"OBJECT_NAME":"KUIPER-00234","OBJECT_ID":"2026-072J","EPOCH":"2026-04-17T21:07:29.286048","MEAN_MOTION":15.38434611,"ECCENTRICITY":0.00022526,"INCLINATION":51.8745,"RA_OF_ASC_NODE":108.4821,"ARG_OF_PERICENTER":111.2821,"MEAN_ANOMALY":248.8407,"EPHEMERIS_TYPE":0,"CLASSIFICATION_TYPE":"U","NORAD_CAT_ID":68581,"ELEMENT_SET_NO":999,"REV_AT_EPOCH":210,"BSTAR":0.00032977592,"MEAN_MOTION_DOT":0.00012326,"MEAN_MOTION_DDOT":0},{"OBJECT_NAME":"KUIPER-00236","OBJECT_ID":"2026-072K","EPOCH":"2026-04-17T21:08:17.906784","MEAN_MOTION":15.38334505,"ECCENTRICITY":0.0002679,"INCLINATION":51.8748,"RA_OF_ASC_NODE":108.484,"ARG_OF_PERICENTER":116.0101,"MEAN_ANOMALY":244.1162,"EPHEMERIS_TYPE":0,"CLASSIFICATION_TYPE":"U","NORAD_CAT_ID":68582,"ELEMENT_SET_NO":999,"REV_AT_EPOCH":210,"BSTAR":0.00032368592,"MEAN_MOTION_DOT":0.0001205,"MEAN_MOTION_DDOT":0},{"OBJECT_NAME":"KUIPER-00244","OBJECT_ID":"2026-072L","EPOCH":"2026-04-17T21:13:30.332640","MEAN_MOTION":15.37949324,"ECCENTRICITY":0.00039455,"INCLINATION":51.8745,"RA_OF_ASC_NODE":108.5083,"ARG_OF_PERICENTER":138.9534,"MEAN_ANOMALY":221.175,"EPHEMERIS_TYPE":0,"CLASSIFICATION_TYPE":"U","NORAD_CAT_ID":68583,"ELEMENT_SET_NO":999,"REV_AT_EPOCH":210,"BSTAR":0.00031917439,"MEAN_MOTION_DOT":0.00011726,"MEAN_MOTION_DDOT":0},{"OBJECT_NAME":"KUIPER-00253","OBJECT_ID":"2026-072M","EPOCH":"2026-04-18T12:54:56.270592","MEAN_MOTION":15.37485637,"ECCENTRICITY":0.0005376,"INCLINATION":51.8706,"RA_OF_ASC_NODE":105.3917,"ARG_OF_PERICENTER":149.1443,"MEAN_ANOMALY":210.986,"EPHEMERIS_TYPE":0,"CLASSIFICATION_TYPE":"U","NORAD_CAT_ID":68584,"ELEMENT_SET_NO":999,"REV_AT_EPOCH":220,"BSTAR":0.00059281046,"MEAN_MOTION_DOT":0.00021816,"MEAN_MOTION_DDOT":0},{"OBJECT_NAME":"KUIPER-00254","OBJECT_ID":"2026-072N","EPOCH":"2026-04-17T21:26:18.146112","MEAN_MOTION":15.36922297,"ECCENTRICITY":0.00076001,"INCLINATION":51.8705,"RA_OF_ASC_NODE":108.5684,"ARG_OF_PERICENTER":152.8727,"MEAN_ANOMALY":207.2658,"EPHEMERIS_TYPE":0,"CLASSIFICATION_TYPE":"U","NORAD_CAT_ID":68585,"ELEMENT_SET_NO":999,"REV_AT_EPOCH":210,"BSTAR":0.00030412965,"MEAN_MOTION_DOT":0.00010784,"MEAN_MOTION_DDOT":0},{"OBJECT_NAME":"KUIPER-00263","OBJECT_ID":"2026-072P","EPOCH":"2026-04-17T21:05:48.970464","MEAN_MOTION":15.38505965,"ECCENTRICITY":0.00020823,"INCLINATION":51.8753,"RA_OF_ASC_NODE":108.4707,"ARG_OF_PERICENTER":83.6014,"MEAN_ANOMALY":276.521,"EPHEMERIS_TYPE":0,"CLASSIFICATION_TYPE":"U","NORAD_CAT_ID":68586,"ELEMENT_SET_NO":999,"REV_AT_EPOCH":210,"BSTAR":0.00033746399,"MEAN_MOTION_DOT":0.00012653,"MEAN_MOTION_DDOT":0}]
