MERIDIAN-M 21L
1 68571U 26071A   26104.39797982  .00000489  00000+0  80352-2 0  9990
2 68571  62.7790 237.3403 7234646 284.9939  10.8160  1.98596107   235
KUIPER-00131
1 68573U 26072A   26107.95641882 -.00204929  00000+0 -57646-2 0  9992
2 68573  51.8683 108.2416 0007540 147.8928 212.2519 15.36699012  2117
KUIPER-00189
1 68574U 26072B   26110.58336806 -.00037944  00000+0 -17193-2 0  9997
2 68574  51.8834  95.9976 0000801  76.2275 180.2268 15.20265647  3013
KUIPER-00192
1 68575U 26072C   26107.88712232  .00011542  00000+0  31737-3 0  9993
2 68575  51.8736 108.5275 0005027 140.1870 219.9486 15.37647406  2101
KUIPER-00193
1 68576U 26072D   26107.88576528  .00012034  00000+0  33006-3 0  9998
2 68576  51.8739 108.5181 0003314 126.7967 233.3324 15.37687211  2104
KUIPER-00194
1 68577U 26072E   26108.59714662 -.00022625  00000+0 -58769-3 0  9993
2 68577  51.8757 105.0333 0002697 123.5402 236.5843 15.37972278  2211
KUIPER-00229
1 68578U 26072F   26107.89286148  .00010572  00000+0  29817-3 0  9997
2 68578  51.8694 108.5657 0007530 146.1324 214.0145 15.36942324  2106
KUIPER-00230
1 68579U 26072G   26107.87896177  .00012230  00000+0  32760-3 0  9999
2 68579  51.8754 108.4682 0001616 101.2995 258.8174 15.38406847  2101
KUIPER-00231
1 68580U 26072H   26107.88331841  .00012206  00000+0  33123-3 0  9991
2 68580  51.8734 108.5035 0002719 125.3757 234.7485 15.38006246  2109
KUIPER-00234
1 68581U 26072J   26107.88020007  .00012326  00000+0  32978-3 0  9991
2 68581  51.8745 108.4821 0002252 111.2821 248.8407 15.38434611  2103
KUIPER-00236
1 68582U 26072K   26107.88076281  .00012050  00000+0  32369-3 0  9995
2 68582  51.8748 108.4840 0002679 116.0101 244.1162 15.38334505  2103
KUIPER-00244
1 68583U 26072L   26107.88437885  .00011726  00000+0  31917-3 0  9994
2 68583  51.8745 108.5083 0003945 138.9534 221.1750 15.37949324  2109
KUIPER-00253
1 68584U 26072M   26108.53815128  .00021816  00000+0  59281-3 0  9993
2 68584  51.8706 105.3917 0005376 149.1443 210.9860 15.37485637  2202
KUIPER-00254
1 68585U 26072N   26107.89326558  .00010784  00000+0  30413-3 0  9994
2 68585  51.8705 108.5684 0007600 152.8727 207.2658 15.36922297  2106
KUIPER-00263
1 68586U 26072P   26107.87903901  .00012653  00000+0  33746-3 0  9995
2 68586  51.8753 108.4707 0002082  83.6014 276.5210 15.38505965  2108
FREGAT R/B
1 68572U 26071B   26093.32132148 -.00001541  00000+0  35052-3 0  9997
2 68572  63.0589 237.9448 7313819 284.9724  10.3188  2.01041412    13
